[{"OBJECT_NAME":"STARLINK-5065","OBJECT_ID":"2023-021P","EPOCH":"2026-03-09T17:27:18.602496","MEAN_MOTION":14.98329574,"ECCENTRICITY":0.00031499,"INCLINATION":70.0008,"RA_OF_ASC_NODE":184.494,"ARG_OF_PERICENTER":268.0552,"MEAN_ANOMALY":92.0246,"EPHEMERIS_TYPE":0,"CLASSIFICATION_TYPE":"U","NORAD_CAT_ID":55641,"ELEMENT_SET_NO":999,"REV_AT_EPOCH":16879,"BSTAR":9.789213e-6,"MEAN_MOTION_DOT":2.4e-7,"MEAN_MOTION_DDOT":0},{"OBJECT_NAME":"ATLAS 28E DEB","OBJECT_ID":"1990-031F","EPOCH":"2026-03-09T23:20:22.354944","MEAN_MOTION":14.8907054,"ECCENTRICITY":0.00492653,"INCLINATION":89.9045,"RA_OF_ASC_NODE":245.9973,"ARG_OF_PERICENTER":224.0293,"MEAN_ANOMALY":135.7008,"EPHEMERIS_TYPE":0,"CLASSIFICATION_TYPE":"U","NORAD_CAT_ID":20565,"ELEMENT_SET_NO":999,"REV_AT_EPOCH":36885,"BSTAR":0.00032450895,"MEAN_MOTION_DOT":3.143e-5,"MEAN_MOTION_DDOT":0}]
